NORAD_CAT_ID,OBJECT_NAME,OBJECT_TYPE,EPOCH,MEAN_MOTION,ECCENTRICITY,INCLINATION,RA_OF_ASC_NODE,ARG_OF_PERICENTER,MEAN_ANOMALY,BSTAR,MEAN_MOTION_DOT,MEAN_MOTION_DDOT,TLE_LINE0,TLE_LINE1,TLE_LINE2,SEMIMAJOR_AXIS,PERIOD,APOGEE,PERIGEE,DECAYED
49752.0,STARLINK-3209,PAYLOAD,2023-03-28 13:06:35,15.08858191,0.0002584,53.2171,294.6071,75.9063,284.2216,0.00062732,9.715e-05,0.0,0 STARLINK-3209,1 49752U 21115AE  23087.54624531  .00009715  00000-0  62732-3 0  9992,2 49752  53.2171 294.6071 0002584  75.9063 284.2216 15.08858191 74176,6917.825,95.436,541.477,537.902,0.0
49752.0,STARLINK-3209,PAYLOAD,2023-03-28 21:03:31,15.08852162,0.0001178,53.2147,293.1151,89.4236,270.6891,0.00033927,5.117e-05,0.0,0 STARLINK-3209,1 49752U 21115AE  23087.87744227  .00005117  00000-0  33927-3 0  9999,2 49752  53.2147 293.1151 0001178  89.4236 270.6891 15.08852162 73115,6917.843,95.437,540.523,538.893,0.0
49752.0,STARLINK-3209,PAYLOAD,2023-03-29 00:14:17,15.0885881,0.0001115,53.214,292.5193,98.7654,261.3464,0.00073551,0.00011443,0.0,0 STARLINK-3209,1 49752U 21115AE  23088.00991987  .00011443  00000-0  73551-3 0  9998,2 49752  53.2140 292.5193 0001115  98.7654 261.3464 15.08858810 74249,6917.823,95.436,540.459,538.917,0.0
49752.0,STARLINK-3209,PAYLOAD,2023-03-29 19:18:54,15.08843697,0.0001139,53.2129,288.9465,133.0945,227.0143,0.00028119,4.191e-05,0.0,0 STARLINK-3209,1 49752U 21115AE  23088.80480101  .00004191  00000-0  28119-3 0  9999,2 49752  53.2129 288.9465 0001139 133.0945 227.0143 15.08843697 73259,6917.869,95.437,540.522,538.946,0.0
49752.0,STARLINK-3209,PAYLOAD,2023-03-29 20:54:17,15.08844407,0.0001173,53.2133,288.6477,139.019,221.089,0.00031231,4.687e-05,0.0,0 STARLINK-3209,1 49752U 21115AE  23088.87104053  .00004687  00000-0  31231-3 0  9994,2 49752  53.2133 288.6477 0001173 139.0190 221.0890 15.08844407 74377,6917.867,95.437,540.543,538.92,0.0
49752.0,STARLINK-3209,PAYLOAD,2023-03-30 06:26:37,15.0884037,0.0001197,53.2146,286.8705,73.9723,286.1401,0.00028683,4.28e-05,0.0,0 STARLINK-3209,1 49752U 21115AE  23089.26848627  .00004280  00000-0  28683-3 0  9996,2 49752  53.2146 286.8705 0001197  73.9723 286.1401 15.08840370 74431,6917.879,95.438,540.572,538.916,0.0
49752.0,STARLINK-3209,PAYLOAD,2023-03-30 19:09:42,15.08844449,0.0001143,53.2147,284.4896,83.455,276.6572,0.0002715,4.036e-05,0.0,0 STARLINK-3209,1 49752U 21115AE  23089.79840579  .00004036  00000-0  27150-3 0  9999,2 49752  53.2147 284.4896 0001143  83.4550 276.6572 15.08844449 73402,6917.867,95.437,540.523,538.941,0.0
49752.0,STARLINK-3209,PAYLOAD,2023-03-31 12:38:56,15.08845693,0.0001298,53.2144,281.2206,77.3332,282.7805,0.00027306,4.061e-05,0.0,0 STARLINK-3209,1 49752U 21115AE  23090.52704603  .00004061  00000-0  27306-3 0  9990,2 49752  53.2144 281.2206 0001298  77.3332 282.7805 15.08845693 74624,6917.863,95.437,540.626,538.83,0.0
49752.0,STARLINK-3209,PAYLOAD,2023-04-01 12:29:44,15.08828751,0.0001439,53.2145,276.7607,61.3735,298.7401,-0.00014162,-2.54e-05,0.0,0 STARLINK-3209,1 49752U 21115AE  23091.52065240 -.00002540  00000-0 -14162-3 0  9996,2 49752  53.2145 276.7607 0001439  61.3735 298.7401 15.08828751 74777,6917.915,95.438,540.775,538.784,0.0
49752.0,STARLINK-3209,PAYLOAD,2023-04-01 18:51:16,15.08832412,0.0001152,53.2147,275.5705,65.73,294.3812,-3.8696e-05,-9.03e-06,0.0,0 STARLINK-3209,1 49752U 21115AE  23091.78561149 -.00000903  00000-0 -38696-4 0  9993,2 49752  53.2147 275.5705 0001152  65.7300 294.3812 15.08832412 73702,6917.904,95.438,540.566,538.972,0.0
49752.0,STARLINK-3209,PAYLOAD,2023-04-02 12:20:31,15.0884218,0.0001215,53.2162,272.2998,67.6665,292.4456,0.0002509,3.708e-05,0.0,0 STARLINK-3209,1 49752U 21115AE  23092.51425068  .00003708  00000-0  25090-3 0  9991,2 49752  53.2162 272.2998 0001215  67.6665 292.4456 15.08842180 73810,6917.874,95.437,540.579,538.898,0.0
49752.0,STARLINK-3209,PAYLOAD,2023-04-02 15:31:17,15.08847433,0.0001188,53.2143,271.7039,67.7242,292.3876,0.00032614,4.907e-05,0.0,0 STARLINK-3209,1 49752U 21115AE  23092.64672872  .00004907  00000-0  32614-3 0  9994,2 49752  53.2143 271.7039 0001188  67.7242 292.3876 15.08847433 74946,6917.858,95.437,540.545,538.901,0.0
49752.0,STARLINK-3209,PAYLOAD,2023-04-02 18:42:03,15.08854737,0.000119,53.2144,271.1085,65.7014,294.4102,0.00085134,0.00013293,0.0,0 STARLINK-3209,1 49752U 21115AE  23092.77920904  .00013293  00000-0  85134-3 0  9993,2 49752  53.2144 271.1085 0001190  65.7014 294.4102 15.08854737 73859,6917.835,95.437,540.524,538.877,0.0
49752.0,STARLINK-3209,PAYLOAD,2023-04-03 10:35:54,15.08853422,0.000125,53.2144,268.1346,58.3616,301.7498,0.00056061,8.649e-05,0.0,0 STARLINK-3209,1 49752U 21115AE  23093.44160870  .00008649  00000-0  56061-3 0  9992,2 49752  53.2144 268.1346 0001250  58.3616 301.7498 15.08853422 73959,6917.839,95.437,540.569,538.84,0.0
49752.0,STARLINK-3209,PAYLOAD,2023-04-03 18:32:50,15.08850437,0.0001275,53.2148,266.6469,62.2739,297.8382,0.00041446,6.316e-05,0.0,0 STARLINK-3209,1 49752U 21115AE  23093.77280767  .00006316  00000-0  41446-3 0  9996,2 49752  53.2148 266.6469 0001275  62.2739 297.8382 15.08850437 75119,6917.848,95.437,540.596,538.831,0.0
49752.0,STARLINK-3209,PAYLOAD,2023-04-04 12:02:05,15.08841322,0.0001061,53.2155,263.3779,81.3971,278.7141,7.0239e-05,8.3e-06,0.0,0 STARLINK-3209,1 49752U 21115AE  23094.50144724  .00000830  00000-0  70239-4 0  9998,2 49752  53.2155 263.3779 0001061  81.3971 278.7141 15.08841322 75224,6917.876,95.437,540.475,539.007,0.0
49752.0,STARLINK-3209,PAYLOAD,2023-04-05 11:52:52,15.08839065,0.0001002,53.2147,258.9152,75.5462,284.5642,0.0001078,1.428e-05,0.0,0 STARLINK-3209,1 49752U 21115AE  23095.49505012  .00001428  00000-0  10780-3 0  9996,2 49752  53.2147 258.9152 0001002  75.5462 284.5642 15.08839065 74260,6917.883,95.438,540.441,539.055,0.0
49752.0,STARLINK-3209,PAYLOAD,2023-04-05 15:03:38,15.08837514,0.0001201,53.2166,258.3214,84.3787,275.7342,3.9926e-05,3.48e-06,0.0,0 STARLINK-3209,1 49752U 21115AE  23095.62753119  .00000348  00000-0  39926-4 0  9998,2 49752  53.2166 258.3214 0001201  84.3787 275.7342 15.08837514 75394,6917.888,95.438,540.584,538.922,0.0
49752.0,STARLINK-3209,PAYLOAD,2023-04-05 18:14:24,15.08839659,0.0001196,53.2148,257.7254,80.4799,279.6328,8.3093e-05,1.035e-05,0.0,0 STARLINK-3209,1 49752U 21115AE  23095.76001039  .00001035  00000-0  83093-4 0  9998,2 49752  53.2148 257.7254 0001196  80.4799 279.6328 15.08839659 74303,6917.881,95.438,540.574,538.919,0.0
49752.0,STARLINK-3209,PAYLOAD,2023-04-06 10:08:16,15.08836112,0.0001164,53.2155,254.752,82.2237,277.8888,7.7664e-05,9.48e-06,0.0,0 STARLINK-3209,1 49752U 21115AE  23096.42241472  .00000948  00000-0  77664-4 0  9998,2 49752  53.2155 254.7520 0001164  82.2237 277.8888 15.08836112 74409,6917.892,95.438,540.563,538.952,0.0
49752.0,STARLINK-3209,PAYLOAD,2023-04-06 19:40:35,15.08842982,0.0001278,53.2164,252.9692,79.6187,280.495,0.00018138,2.6e-05,0.0,0 STARLINK-3209,1 49752U 21115AE  23096.81985224  .00002600  00000-0  18138-3 0  9998,2 49752  53.2164 252.9692 0001278  79.6187 280.4950 15.08842982 75570,6917.871,95.437,540.62,538.852,0.0
49752.0,STARLINK-3209,PAYLOAD,2023-04-07 13:09:49,15.08839806,0.0001428,53.2149,249.6963,88.7117,271.4039,0.00012226,1.658e-05,0.0,0 STARLINK-3209,1 49752U 21115AE  23097.54849520  .00001658  00000-0  12226-3 0  9991,2 49752  53.2149 249.6963 0001428  88.7117 271.4039 15.08839806 74576,6917.881,95.438,540.734,538.758,0.0
49752.0,STARLINK-3209,PAYLOAD,2023-04-08 09:49:50,15.08840087,0.0001738,53.2157,245.8334,81.3834,278.7355,9.1593e-05,1.17e-05,0.0,0 STARLINK-3209,1 49752U 21115AE  23098.40961658  .00001170  00000-0  91593-4 0  9998,2 49752  53.2157 245.8334 0001738  81.3834 278.7355 15.08840087 75816,6917.88,95.438,540.947,538.543,0.0
49752.0,STARLINK-3209,PAYLOAD,2023-04-09 03:19:05,15.08834878,0.0001972,53.2154,242.5628,68.7851,291.3352,0.00023934,3.523e-05,0.0,0 STARLINK-3209,1 49752U 21115AE  23099.13826223  .00003523  00000-0  23934-3 0  9994,2 49752  53.2154 242.5628 0001972  68.7851 291.3352 15.08834878 75922,6917.896,95.438,541.125,538.397,0.0
49752.0,STARLINK-3209,PAYLOAD,2023-04-09 09:40:38,15.08838329,0.0001514,53.2154,241.3723,74.1522,285.9637,0.00010103,1.32e-05,0.0,0 STARLINK-3209,1 49752U 21115AE  23099.40321891  .00001320  00000-0  10103-3 0  9992,2 49752  53.2154 241.3723 0001514  74.1522 285.9637 15.08838329 74854,6917.885,95.438,540.798,538.703,0.0
49752.0,STARLINK-3209,PAYLOAD,2023-04-09 16:02:10,15.08841579,0.0001394,53.2166,240.183,72.989,287.1255,5.684e-05,6.17e-06,0.0,0 STARLINK-3209,1 49752U 21115AE  23099.66817766  .00000617  00000-0  56840-4 0  9998,2 49752  53.2166 240.1830 0001394  72.9890 287.1255 15.08841579 74898,6917.876,95.437,540.705,538.776,0.0
49752.0,STARLINK-3209,PAYLOAD,2023-04-10 09:31:25,15.08840873,0.00015,53.2165,236.9111,78.7792,281.3369,0.00011043,1.47e-05,0.0,0 STARLINK-3209,1 49752U 21115AE  23100.39681787  .00001470  00000-0  11043-3 0  9996,2 49752  53.2165 236.9111 0001500  78.7792 281.3369 15.08840873 76111,6917.878,95.437,540.78,538.705,0.0
49752.0,STARLINK-3209,PAYLOAD,2023-04-10 15:52:57,15.08840822,0.0001567,53.2166,235.7219,79.6134,280.5034,0.00029027,4.335e-05,0.0,0 STARLINK-3209,1 49752U 21115AE  23100.66177455  .00004335  00000-0  29027-3 0  9992,2 49752  53.2166 235.7219 0001567  79.6134 280.5034 15.08840822 75046,6917.878,95.438,540.827,538.659,0.0
49752.0,STARLINK-3209,PAYLOAD,2023-04-11 12:32:58,15.08835724,0.0001392,53.2164,231.8577,67.7323,292.3817,9.0892e-05,1.159e-05,0.0,0 STARLINK-3209,1 49752U 21115AE  23101.52290168  .00001159  00000-0  90892-4 0  9995,2 49752  53.2164 231.8577 0001392  67.7323 292.3817 15.08835724 76284,6917.893,95.438,540.721,538.795,0.0
49752.0,STARLINK-3209,PAYLOAD,2023-04-12 01:16:03,15.08845378,0.000131,53.216,229.4781,80.7086,279.4054,5.6989e-05,6.19e-06,0.0,0 STARLINK-3209,1 49752U 21115AE  23102.05281397  .00000619  00000-0  56989-4 0  9997,2 49752  53.2160 229.4781 0001310  80.7086 279.4054 15.08845378 76365,6917.864,95.437,540.635,538.823,0.0
